CCSDS_OMM_VERS,COMMENT,CREATION_DATE,ORIGINATOR,OBJECT_NAME,OBJECT_ID,CENTER_NAME,REF_FRAME,TIME_SYSTEM,MEAN_ELEMENT_THEORY,EPOCH,MEAN_MOTION,ECCENTRICITY,INCLINATION,RA_OF_ASC_NODE,ARG_OF_PERICENTER,MEAN_ANOMALY,EPHEMERIS_TYPE,CLASSIFICATION_TYPE,NORAD_CAT_ID,ELEMENT_SET_NO,REV_AT_EPOCH,BSTAR,MEAN_MOTION_DOT,MEAN_MOTION_DDOT,SEMIMAJOR_AXIS,PERIOD,APOAPSIS,PERIAPSIS,OBJECT_TYPE,RCS_SIZE,COUNTRY_CODE,LAUNCH_DATE,SITE,DECAY_DATE,FILE,GP_ID,TLE_LINE0,TLE_LINE1,TLE_LINE2
2.0,GENERATED VIA SPACE-TRACK.ORG API,2022-08-20T14:46:13,18 SPCS,STARLINK-4312,2022-077Y,EARTH,TEME,UTC,SGP4,2022-08-20T12:00:00.999648,15.1675121,0.0001981,97.6553,52.7869,77.5661,161.6798,0,U,53065,999,687,-0.067832,-0.01219758,0.0,6893.804,94.94,517.035,514.303,PAYLOAD,LARGE,US,2022-07-11,AFWTR,,3541158,210558546,0 STARLINK-4312,1 53065U 22077Y   22232.50001157 -.01219758  00000-0 -67832-1 0  9999,2 53065  97.6553  52.7869 0001981  77.5661 161.6798 15.16751210  6872
2.0,GENERATED VIA SPACE-TRACK.ORG API,2022-08-20T14:46:13,18 SPCS,STARLINK-4313,2022-077X,EARTH,TEME,UTC,SGP4,2022-08-20T12:00:00.999648,15.16471795,0.0002018,97.6553,52.7901,75.6411,146.9669,0,U,53064,999,687,-0.068362,-0.01219524,0.0,6894.651,94.957,517.907,515.125,PAYLOAD,LARGE,US,2022-07-11,AFWTR,,3541157,210558528,0 STARLINK-4313,1 53064U 22077X   22232.50001157 -.01219524  00000-0 -68362-1 0  9998,2 53064  97.6553  52.7901 0002018  75.6411 146.9669 15.16471795  6872
2.0,GENERATED VIA SPACE-TRACK.ORG API,2022-08-20T14:46:13,18 SPCS,STARLINK-4307,2022-077W,EARTH,TEME,UTC,SGP4,2022-08-20T12:00:00.999648,15.27398644,0.0002077,97.6545,52.829,62.4052,345.2844,0,U,53063,999,687,-0.027276,-0.00677272,0.0,6861.729,94.278,485.019,482.169,PAYLOAD,LARGE,US,2022-07-11,AFWTR,,3541157,210558126,0 STARLINK-4307,1 53063U 22077W   22232.50001157 -.00677272  00000-0 -27276-1 0  9993,2 53063  97.6545  52.8290 0002077  62.4052 345.2844 15.27398644  6876
2.0,GENERATED VIA SPACE-TRACK.ORG API,2022-08-20T14:46:13,18 SPCS,STARLINK-4311,2022-077V,EARTH,TEME,UTC,SGP4,2022-08-20T12:00:00.999648,15.16071627,0.0002068,97.6554,52.785,71.2768,130.2184,0,U,53062,999,687,-0.06913,-0.01219242,0.0,6895.864,94.982,519.155,516.303,PAYLOAD,LARGE,US,2022-07-11,AFWTR,,3541156,210558517,0 STARLINK-4311,1 53062U 22077V   22232.50001157 -.01219242  00000-0 -69130-1 0  9997,2 53062  97.6554  52.7850 0002068  71.2768 130.2184 15.16071627  6874
2.0,GENERATED VIA SPACE-TRACK.ORG API,2022-08-20T14:46:13,18 SPCS,STARLINK-4308,2022-077U,EARTH,TEME,UTC,SGP4,2022-08-20T12:00:00.999648,15.16583812,0.0001976,97.6553,52.7896,83.5153,145.3093,0,U,53061,999,687,-0.068145,-0.01219544,0.0,6894.311,94.95,517.539,514.814,PAYLOAD,LARGE,US,2022-07-11,AFWTR,,3541156,210558107,0 STARLINK-4308,1 53061U 22077U   22232.50001157 -.01219544  00000-0 -68145-1 0  9996,2 53061  97.6553  52.7896 0001976  83.5153 145.3093 15.16583812  6873
2.0,GENERATED VIA SPACE-TRACK.ORG API,2022-08-20T14:56:12,18 SPCS,STARLINK-4317,2022-077R,EARTH,TEME,UTC,SGP4,2022-08-20T12:00:00.999648,15.15930286,0.0002182,97.6554,52.7915,62.0821,129.3454,0,U,53058,999,628,-0.069393,-0.01219004,0.0,6896.293,94.991,519.663,516.653,PAYLOAD,LARGE,US,2022-07-11,AFWTR,,3541190,210559255,0 STARLINK-4317,1 53058U 22077R   22232.50001157 -.01219004  00000-0 -69393-1 0  9999,2 53058  97.6554  52.7915 0002182  62.0821 129.3454 15.15930286  6284
2.0,GENERATED VIA SPACE-TRACK.ORG API,2022-08-20T14:46:13,18 SPCS,STARLINK-4314,2022-077P,EARTH,TEME,UTC,SGP4,2022-08-20T12:00:00.999648,15.15802383,0.0002077,97.6554,52.7947,70.6732,112.8819,0,U,53056,999,686,-0.069633,-0.01218764,0.0,6896.681,94.999,519.978,517.113,PAYLOAD,LARGE,US,2022-07-11,AFWTR,,3541164,210558098,0 STARLINK-4314,1 53056U 22077P   22232.50001157 -.01218764  00000-0 -69633-1 0  9996,2 53056  97.6554  52.7947 0002077  70.6732 112.8819 15.15802383  6868
2.0,GENERATED VIA SPACE-TRACK.ORG API,2022-08-20T14:46:13,18 SPCS,STARLINK-4339,2022-077M,EARTH,TEME,UTC,SGP4,2022-08-20T12:00:00.999648,15.15611093,0.0002092,97.6555,52.7967,68.8444,103.6605,0,U,53054,999,686,-0.070002,-0.01218584,0.0,6897.261,95.011,520.569,517.683,PAYLOAD,LARGE,US,2022-07-11,AFWTR,,3541155,210558082,0 STARLINK-4339,1 53054U 22077M   22232.50001157 -.01218584  00000-0 -70002-1 0  9996,2 53054  97.6555  52.7967 0002092  68.8444 103.6605 15.15611093  6862
2.0,GENERATED VIA SPACE-TRACK.ORG API,2022-08-20T14:56:12,18 SPCS,STARLINK-4345,2022-077G,EARTH,TEME,UTC,SGP4,2022-08-20T12:00:00.999648,15.15447769,0.000215,97.6555,52.7936,63.8356,99.734,0,U,53049,999,628,-0.070338,-0.01218755,0.0,6897.757,95.021,521.105,518.138,PAYLOAD,LARGE,US,2022-07-11,AFWTR,,3541188,210559216,0 STARLINK-4345,1 53049U 22077G   22232.50001157 -.01218755  00000-0 -70338-1 0  9992,2 53049  97.6555  52.7936 0002150  63.8356  99.7340 15.15447769  6288
2.0,GENERATED VIA SPACE-TRACK.ORG API,2022-08-20T14:56:12,18 SPCS,STARLINK-3884,2022-049AY,EARTH,TEME,UTC,SGP4,2022-08-20T12:00:00.999648,15.08808568,0.0001749,53.2206,112.4187,49.9542,283.0855,0,U,52497,999,1672,0.0029795,0.00047409,0.0,6917.976,95.44,541.051,538.632,PAYLOAD,LARGE,US,2022-05-06,AFETR,,3541190,210558888,0 STARLINK-3884,1 52497U 22049AY  22232.50001157  .00047409  00000-0  29795-2 0  9992,2 52497  53.2206 112.4187 0001749  49.9542 283.0855 15.08808568 16721
2.0,GENERATED VIA SPACE-TRACK.ORG API,2022-08-20T14:56:12,18 SPCS,STARLINK-4275,2022-076Y,EARTH,TEME,UTC,SGP4,2022-08-20T12:00:00.999648,15.57614809,0.0001065,53.2174,162.5047,82.4604,227.9727,0,U,53008,999,741,-0.015571,-0.01064893,0.0,6772.699,92.449,395.286,393.843,PAYLOAD,LARGE,US,2022-07-07,AFETR,,3541185,210559181,0 STARLINK-4275,1 53008U 22076Y   22232.50001157 -.01064893  00000-0 -15571-1 0  9996,2 53008  53.2174 162.5047 0001065  82.4604 227.9727 15.57614809  7415
2.0,GENERATED VIA SPACE-TRACK.ORG API,2022-08-20T14:56:12,18 SPCS,STARLINK-4255,2022-076T,EARTH,TEME,UTC,SGP4,2022-08-20T12:00:00.999648,15.57600927,0.0001071,53.2174,162.4907,90.2993,218.612,0,U,53003,999,741,-0.015577,-0.01064759,0.0,6772.74,92.45,395.33,393.879,PAYLOAD,LARGE,US,2022-07-07,AFETR,,3541185,210559178,0 STARLINK-4255,1 53003U 22076T   22232.50001157 -.01064759  00000-0 -15577-1 0  9998,2 53003  53.2174 162.4907 0001071  90.2993 218.6120 15.57600927  7419
2.0,GENERATED VIA SPACE-TRACK.ORG API,2022-08-20T14:46:13,18 SPCS,STARLINK-4295,2022-076L,EARTH,TEME,UTC,SGP4,2022-08-20T12:00:00.999648,15.57532858,0.0001147,53.2172,162.4152,65.4639,235.8329,0,U,52996,999,741,-0.015637,-0.01066016,0.0,6772.937,92.454,395.579,394.025,PAYLOAD,LARGE,US,2022-07-07,AFETR,,3541171,210558255,0 STARLINK-4295,1 52996U 22076L   22232.50001157 -.01066016  00000-0 -15637-1 0  9993,2 52996  53.2172 162.4152 0001147  65.4639 235.8329 15.57532858  7413
2.0,GENERATED VIA SPACE-TRACK.ORG API,2022-08-20T14:56:12,18 SPCS,STARLINK-4269,2022-076G,EARTH,TEME,UTC,SGP4,2022-08-20T12:00:00.999648,15.15451455,0.0001656,53.2174,167.4755,38.5183,339.285,0,U,52992,999,734,-0.064374,-0.01136065,0.0,6897.745,95.021,520.753,518.468,PAYLOAD,LARGE,US,2022-07-07,AFETR,,3541185,210558813,0 STARLINK-4269,1 52992U 22076G   22232.50001157 -.01136065  00000-0 -64374-1 0  9993,2 52992  53.2174 167.4755 0001656  38.5183 339.2850 15.15451455  7342
2.0,GENERATED VIA SPACE-TRACK.ORG API,2022-08-20T14:46:13,18 SPCS,STARLINK-4293,2022-076D,EARTH,TEME,UTC,SGP4,2022-08-20T12:00:00.999648,15.14528565,0.0001617,53.2173,167.4699,40.8138,285.4785,0,U,52989,999,734,-0.066175,-0.01137432,0.0,6900.547,95.079,523.528,521.296,PAYLOAD,LARGE,US,2022-07-07,AFETR,,3541171,210558249,0 STARLINK-4293,1 52989U 22076D   22232.50001157 -.01137432  00000-0 -66175-1 0  9999,2 52989  53.2173 167.4699 0001617  40.8138 285.4785 15.14528565  7342
2.0,GENERATED VIA SPACE-TRACK.ORG API,2022-08-20T14:56:12,18 SPCS,STARLINK-4291,2022-076C,EARTH,TEME,UTC,SGP4,2022-08-20T12:00:00.999648,15.57523327,0.000108,53.2171,162.3914,87.5126,210.5974,0,U,52988,999,741,-0.015633,-0.010654,0.0,6772.965,92.454,395.561,394.098,PAYLOAD,LARGE,US,2022-07-07,AFETR,,3541185,210559180,0 STARLINK-4291,1 52988U 22076C   22232.50001157 -.01065400  00000-0 -15633-1 0  9996,2 52988  53.2171 162.3914 0001080  87.5126 210.5974 15.57523327  7417
2.0,GENERATED VIA SPACE-TRACK.ORG API,2022-08-20T15:06:12,18 SPCS,DUMMY MASS 2,1997-048B,EARTH,TEME,UTC,SGP4,2022-08-20T11:59:26.961504,14.85173933,0.0006936,86.331,253.1102,191.7709,168.3354,0,U,24926,999,35195,1.8506e-05,1.86e-06,0.0,6991.177,96.958,617.891,608.193,PAYLOAD,LARGE,PRC,1997-09-01,TSC,,3541222,210559617,0 DUMMY MASS 2,1 24926U 97048B   22232.49961761  .00000186  00000-0  18506-4 0  9994,2 24926  86.3310 253.1102 0006936 191.7709 168.3354 14.85173933351955
2.0,GENERATED VIA SPACE-TRACK.ORG API,2022-08-20T15:06:12,18 SPCS,OKEAN 4,1994-066A,EARTH,TEME,UTC,SGP4,2022-08-20T11:58:19.156512,14.88522259,0.001784,82.5392,139.6797,267.8529,92.0646,0,U,23317,999,50699,7.9954e-05,7.69e-06,0.0,6980.689,96.74,615.007,590.1,PAYLOAD,LARGE,CIS,1994-10-11,PKMTR,,3541229,210559743,0 OKEAN 4,1 23317U 94066A   22232.49883283  .00000769  00000-0  79954-4 0  9997,2 23317  82.5392 139.6797 0017840 267.8529  92.0646 14.88522259506990
2.0,GENERATED VIA SPACE-TRACK.ORG API,2022-08-20T15:06:12,18 SPCS,STARLINK-2156,2021-017W,EARTH,TEME,UTC,SGP4,2022-08-20T11:57:11.578752,15.06388717,0.0001294,53.0529,264.9426,80.8047,279.3088,0,U,47742,999,8172,-0.00012059,-2.077e-05,0.0,6925.383,95.593,548.144,546.352,PAYLOAD,LARGE,US,2021-03-04,AFETR,,3541245,210560623,0 STARLINK-2156,1 47742U 21017W   22232.49805068 -.00002077  00000-0 -12059-3 0  9994,2 47742  53.0529 264.9426 0001294  80.8047 279.3088 15.06388717 81727
2.0,GENERATED VIA SPACE-TRACK.ORG API,2022-08-20T15:06:12,18 SPCS,SJ-11-07,2014-059A,EARTH,TEME,UTC,SGP4,2022-08-20T11:56:35.933568,14.60566895,0.0010411,98.1272,314.0399,210.5333,149.5266,0,U,40261,999,42084,6.6413e-05,2.77e-06,0.0,7069.481,98.592,698.706,683.986,PAYLOAD,LARGE,PRC,2014-09-28,JSC,,3541244,210560408,0 SJ-11-07,1 40261U 14059A   22232.49763812  .00000277  00000-0  66413-4 0  9993,2 40261  98.1272 314.0399 0010411 210.5333 149.5266 14.60566895420848
